#dP2022  1 10  0  0  0.00000000      97 __u+U IGS14 FIT  IAC
## 2192  86400.00000000   900.00000000 59589 0.0000000000000
+  123   C01C02C03C04C05C06C07C08C09C10C11C12C13C14C16C19C20
+        C21C22C23C24C25C26C27C28C29C30C32C33C34C35C36C37C38
+        C39C40C41C42C43C44C45C46C60E01E02E03E04E05E07E08E09
+        E11E12E13E14E15E18E19E21E24E25E26E27E30E31E33E36G01
+        G02G03G04G05G06G07G08G09G10G11G12G13G14G15G16G17G18
+        G19G20G21G22G23G24G25G26G27G28G29G30G31G32J01J02J03
+        J07R01R02R03R04R05R07R08R09R11R12R13R14R15R17R18R19
+        R20R21R22R24  0  0  0  0  0  0  0  0  0  0  0  0  0
++        16 15 15 15 15  8  9  9  8  9  8  8  8  8  9  7  7
++         7  7  7  7  7  7  7  7  7  7  7  7  7  7  7  7  7
++         7  7  7  7  7  7  7  7 15  4  4  4  4  4  5  4  4
++         4  4  4  4  4  4  4  4  4  4  4  4  4  4  4  5  3
++         3  3  3  4  3  3  3  3  3  3  3  3  3  3  4  3  3
++         3  4  3  4  3  3  3  3  3  4  3  3  4  3  8  8  8
++        17  6  6  6  5  5  5  5  5  7  6  7  6  5  6  6  7
++         7  5  7  6  0  0  0  0  0  0  0  0  0  0  0  0  0
%c M  cc GPS ccc cccc cccc cccc cccc ccccc ccccc ccccc ccccc
%c cc cc ccc ccc cccc cccc cccc cccc ccccc ccccc ccccc ccccc
%f  1.2500000  1.025000000  0.00000000000  0.000000000000000
%f  0.0000000  0.000000000  0.00000000000  0.000000000000000
%i    0    0    0    0      0      0      0      0         0
%i    0    0    0    0      0      0      0      0         0
/* INFORMATION & ANALYSIS CENTER (IAC)            FINAL DATA
/* S/V CLOCKS ARE ALIGNED TO GNSS TIME                      
/* G:C1WC2W R:C1PC2P E:C1XC5X C:C2IC6I J:C1CC2S             
/* PCV:IGS14_2186 OL/AL:FES2004  NONE     YN ORB:CoN CLK:CoN
*  2022 01 10  1 30  0.00000000
PC01 -34360.419671  24417.525065   -205.045340   -253.886299
PC02   4413.185415  41964.407695    885.446636    726.198830
PC03 -14815.305634  39512.378023     84.993858    546.575369
PC04 -39611.989761  14419.393745   -585.008606   -120.280458
PC05  21914.687365  36028.531734   1304.675654    359.700982
PC06   -966.346150  29852.994196  29819.543748   -147.779689
PC07 -15505.924797  29011.240769 -26425.508651     18.819649
PC08 -10726.294448  40664.229035  -1152.679644     46.951951
PC09   5758.452400  33637.457201  25378.402496   -421.438350
PC10  -8807.151239  28989.894936 -29216.145227    139.234017
PC11   8835.079115  22570.061989 -13729.471042   -280.247639
PC12  -7735.977202  13767.986852 -22961.872082   -432.902598
PC13  -6384.704019  41313.686981   4336.282063   -151.672093
PC14    504.902607  16163.921856  22765.855116    473.761423
PC16  -4097.844772  27500.089828  31900.304167     51.053286
PC19 -11537.791630 -12603.558152 -22042.349817    911.869216
PC20   8507.854334 -16874.233461 -20514.675185   -803.293787
PC21 -24701.373527  11231.564653   6562.375188   -960.790727
PC22 -25698.596948   -920.490241 -10865.190342   -960.669652
PC23  15684.811702   4357.979602 -22667.664594   -966.983996
PC24  -7900.681810  26737.657861    632.544414   -946.244093
PC25   6698.214522  21555.805042 -16401.517891   -797.158827
PC26 -15759.537462  16932.012820  15570.035687    795.721138
PC27  15441.363814  -6263.163930  22372.527686    658.870273
PC28  22472.939310  11050.194186  12317.572705     19.007600
PC29 -17095.514882 -21430.833988   5204.225711    499.286554
PC30   -680.643971 -19674.413599  19768.275513    490.794619
PC32  24645.463269 -11370.256869  -6468.722916   -957.658835
PC33  11500.731655  12628.966007  22068.747780   -955.675205
PC34   1548.053594  20148.722484 -19260.917033   -495.359956
PC35 -22894.085991 -10755.330799 -11750.432884     85.784894
PC36  -5866.416905 -22055.072253  16084.527417   -860.605870
PC37  16409.523731 -15623.094137 -16299.685364   -936.413983
PC38 -14720.377641  38408.404631  -8859.342859    202.924517
PC39  -6932.666115  24872.847382  33358.731629     34.601918
PC40 -23166.119574  23196.100186 -26605.211807    234.200356
PC41  25529.417811   1183.544060  11265.285208   -921.878880
PC42  -9505.709681  16934.325965  20085.227296   -929.528570
PC43  16585.755921  21699.793500  -5790.859300   -949.011158
PC44 -15424.880689   6749.076343 -22254.363995    526.501604
PC45 -15626.112485  -4105.287211  22749.733367    649.674873
PC46   7037.740938 -27021.964900    634.566776   -106.267886
PC60   7293.599227  41511.644925  -1186.660098     -0.282419
PE01 -10974.974428  24091.870336 -13225.832915   -556.324808
PE02  10871.299766 -24096.618070  13339.601966    272.566407
PE03   1969.979203 -17060.415317 -24116.457271   -515.417829
PE04  18818.078376  16323.164242  15991.090518   -939.361529
PE05  22002.308903  -7778.161429 -18214.679701   -219.940156
PE07 -28952.452047  -5906.493423   1789.556469   -626.739537
PE08 -19265.064157 -16031.297211 -15758.989049   5874.678922
PE09  28980.996360   5652.642397  -2012.995016   5400.480893
PE11  17588.234862   8429.542288  22269.235292   4712.030859
PE12  12592.797155  25747.725073   7432.432223   4817.913172
PE13 -17552.220231  -9085.970944 -22022.706033    425.494089
PE14 -14576.513388 -18442.238187  12472.043432  -1704.716305
PE15 -12566.843185 -25781.329158  -7300.343168    770.235240
PE18   2909.794154  21244.888583 -21372.586170  -1876.354532
PE19  -4777.793444  16258.371365  24268.862063    473.637394
PE21 -22344.873359  18938.822144   4222.152275   -710.315413
PE24  21076.779508  -1321.251878 -20767.531683  -1326.696784
PE25  22432.325235 -18802.695199  -4454.768819   -559.745661
PE26 -11861.205830  13897.502206 -23276.344496   -669.625351
PE27 -21515.397498   2553.138640  20161.470946   -206.047858
PE30  -6976.028437 -16091.379949  23838.574954   -179.327723
PE31   8051.285213  15173.738987 -24098.768645   -490.538800
PE33    211.647344  27213.830379 -11638.186046   -460.553396
PE36  12201.497381 -12842.785091  23722.700808   -315.873833
PG01  13517.781644  -6709.414975  21535.589245    461.356226
PG02 -14163.850728 -15903.191427 -15138.480127   -648.213420
PG03  22675.135265 -12143.518565   6296.622361    -72.270353
PG04  21445.206453  -2293.185488 -15552.165405   -195.650852
PG05 -19311.534807   -657.963003 -18449.989472    -67.359978
PG06  -5510.077764 -25748.016978  -3120.722662    166.450694
PG07   6657.158301 -21604.647275 -13158.265892    300.206388
PG08  25507.962255   5467.518077   5863.320038    -51.523972
PG09  11784.451132 -11394.068707 -20977.230994   -358.379329
PG10  -5134.005095  19213.784519  17590.938842   -289.660889
PG11 -12181.579619 -17927.245523 -15366.279571    -28.588320
PG12 -23469.877173   8957.174129   8148.450257   -153.510794
PG13 -23046.969831 -13374.943383   -182.439433    242.886228
PG14   6395.096031 -19342.962238  17003.077571    -68.393529
PG15 -25892.514075  -2576.582750   5714.006678    -92.712660
PG16  17060.511812   5352.369755 -20047.151620   -453.366578
PG17  -2849.294999 -16831.285415  20777.389339    559.294867
PG18  -6480.414414  22112.391015 -13121.881081    263.809506
PG19 -11568.272258 -18068.005909  15512.879821    103.518935
PG20 -12261.643743  -9755.418973 -21444.589910    517.244491
PG21  16230.107251   3680.450277  21493.391343    155.774130
PG22  21477.447187  -6000.832795  14434.235424   -421.164076
PG23 -15178.965913  20009.322124   8484.197452     12.782124
PG24 -15516.862962   2250.787102  21157.740527    277.095879
PG25 -19594.043377  17564.196334  -2483.904746    268.599832
PG26   6303.492253  14921.316719 -21083.125976    172.962661
PG27  23110.270963  12774.656638  -4590.978144     59.189693
PG28  -1167.349355 -16556.473871  21311.673088    425.373057
PG29 -15407.671388   7505.716982 -20349.672532   -465.314529
PG30    457.425746 -25992.369288  -4700.877086   -505.634479
PG31   6901.644706  24747.088419  -5791.580480   -159.199610
PG32   8094.650977  17336.458289  18622.539712    -48.069729
PJ01 -32043.329592  21843.320989  21567.818169    302.330581
PJ02 -34714.687164  23888.655635   7265.937877     -0.711846
PJ03 -20309.728077  21644.162638 -25291.436792     -0.131289
PJ07 -25340.048754  33691.053188     12.482839     -0.015860
PR01 -13755.903496  10399.002312  18798.067580      7.220829
PR02   7896.702061   9939.409875  22174.741807    506.035630
PR03  22611.960385   3718.910874  11307.503617     49.654611
PR04  24472.990810  -4381.578140  -5712.690001    122.804027
PR05  12902.935490 -10038.828298 -19583.131049     85.693931
PR07 -22914.848531  -3379.455360 -10591.921381     30.526142
PR08 -24386.230083   4569.829342   5911.705189    -62.989862
PR09    136.056755 -19568.411042  16335.871840     33.270626
PR11 -14548.197469  12381.911118  16914.879212     47.486702
PR12 -10977.636297  23010.756566     35.954182    293.645949
PR13  -1073.818920  20133.893629 -15640.174083    -16.838112
PR14  10072.216226   4682.318958 -22955.467093     73.054923
PR15  14814.007686 -12799.770210 -16339.641828     99.013309
PR17  16696.980882  15587.979637  11329.962677    491.212153
PR18  12715.873813   1218.673004  22110.602980    103.339715
PR19   3147.708539 -13094.068328  21670.597698   -173.849966
PR20 -10317.284891 -22277.875484   6857.751747    -62.771994
PR21 -16615.229574 -14760.067299 -12536.117731   -268.872080
PR22 -12141.798332   -282.420838 -22421.422316   -157.065696
PR24  11105.594213  22139.235670  -6048.830352     74.976964
EOF
